{
  "norad_id": 62335,
  "name": "PIESAT-2 11",
  "history": [
    {
      "epoch": "2026-03-28T01:57:36.713952",
      "apogee_km": 526.9057454811464,
      "perigee_km": 524.67315374587,
      "latitude_deg": -83.25321594044287,
      "longitude_deg": 61.34079328016378,
      "semi_major_axis_km": 6903.926449613507,
      "eccentricity": 0.00016169,
      "inclination_deg": 97.5235,
      "raan_deg": 35.5815,
      "arg_perigee_deg": 88.2563,
      "mean_anomaly_deg": 271.8854,
      "mean_motion_rev_day": 15.13416721
    }
  ]
}